{"fetched_at":"2026-04-08T17:04:03Z","count":12288,"tles":[{"name":"STARLINK-37251","line1":"1 68514U 26068G   26097.24718339 -.00572362  11259-3 -17236-2 0  9996","line2":"2 68514  53.1612   6.2627 0001199 268.7062  91.3828 15.91442513  1184","category":"Starlink"}]}