{
  "norad_id": 68514,
  "name": "STARLINK-37251",
  "history": [
    {
      "epoch": "2026-04-07T05:55:56.644896Z",
      "apogee_km": 299.04591033900397,
      "perigee_km": 297.44491383658533,
      "latitude_deg": 7.680498413653685e-06,
      "longitude_deg": 81.74986349934159,
      "height_km": 299.18840229472806,
      "semi_major_axis_km": 6676.382412087794,
      "eccentricity": 0.0001199,
      "inclination_deg": 53.1612,
      "raan_deg": 6.2627,
      "arg_perigee_deg": 268.7062,
      "mean_anomaly_deg": 91.3828,
      "mean_motion_rev_day": 15.91442513
    }
  ]
}